297P/Beshore,e,10.3286,97.6612,132.4641,3.443136,0.1542670,0.31934959,320.3924,05/11.0/2020,2000,g 15.0,4.0
# From MPC114609
298P/Christensen,e,7.8702,52.8286,100.6948,3.593565,0.1446825,0.38692153,342.8706,05/11.0/2020,2000,g 15.0,4.0
# From MPC101100
299P/Catalina-PANSTARRS,e,10.4779,271.6229,323.9043,4.383445,0.1073942,0.28208121,204.2880,05/11.0/2020,2000,g 11.5,4.0
# From MPC114609
300P/Catalina,e,5.6765,95.6699,222.8639,2.700034,0.2221520,0.69167496,123.4801,05/11.0/2020,2000,g 16.0,4.0
# From MPC 89014
301P/LINEAR-NEAT,e,10.3458,351.1796,193.7309,5.737416,0.0717182,0.58582195,149.1992,05/11.0/2020,2000,g 13.0,4.0
# From MPEC 2020-H67
302P/Lemmon-PANSTARRS,e,6.0340,121.7542,208.1661,4.277728,0.1113998,0.22972935,163.8287,05/11.0/2020,2000,g 12.5,4.0
# From MPC 92278
303P/NEAT,e,7.0169,347.9706,356.8491,5.049812,0.0868543,0.51000060,176.7333,05/11.0/2020,2000,g 13.5,4.0
# From MPC 92987
304P/Ory,e,2.6067,58.9374,335.2220,3.150004,0.1762940,0.60041199,343.5212,05/11.0/2020,2000,g 16.5,4.0
# From MPC101100
305P/Skiff,e,11.6400,240.1372,147.2628,4.645384,0.0984400,0.69267407,197.3154,05/11.0/2020,2000,g 18.0,4.0
# From MPC 92278
306P/LINEAR,e,8.3104,341.3832,0.8038,3.121509,0.1787134,0.59318489,19.5043,05/11.0/2020,2000,g 19.0,4.0
# From MPC 92278
307P/LINEAR,e,4.4311,158.1248,222.1697,5.795492,0.0706429,0.67393595,139.1271,05/11.0/2020,2000,g 15.0,4.0
# From MPC109148
308P/Lagerkvist-Carsenty,e,4.8493,63.1130,333.6382,6.608701,0.0580136,0.36259056,106.3412,05/11.0/2020,2000,g 13.0,2.0
# From MPC 94284
309P/LINEAR,e,17.0239,10.1449,49.9988,4.370621,0.1078672,0.61755977,206.8651,05/11.0/2020,2000,g 15.0,4.0
# From MPC 98566
310P/Hill,e,13.1283,8.9279,31.8862,4.177347,0.1154392,0.42168113,214.2524,05/11.0/2020,2000,g 13.5,4.0
# From MPC109593
311P/PANSTARRS,e,4.9700,279.2265,144.5924,2.188356,0.3044579,0.11527760,314.4959,05/11.0/2020,2000,g 17.0,4.0
# From MPC 92279
312P/NEAT,e,19.7659,144.6704,207.5199,3.468088,0.1526051,0.42814202,339.0991,05/11.0/2020,2000,g 16.0,4.0
# From MPEC 2019-TG9
313P/Gibbs,e,10.9834,105.9719,254.6087,3.161025,0.1753727,0.23477579,4.5291,05/11.0/2020,2000,g 15.0,4.0
# From MPC105243
314P/Montani,e,3.9790,267.6204,214.2369,7.276717,0.0502112,0.41634699,65.7612,05/11.0/2020,2000,g  9.5,4.0
# From MPC115888
315P/LONEOS,e,17.8401,69.1872,65.6278,4.942259,0.0897048,0.52264438,112.5510,05/11.0/2020,2000,g 11.0,4.0
# From MPC 92279
316P/LONEOS-Christensen,e,9.8831,246.7619,193.8688,4.346793,0.1087553,0.16075941,180.2068,05/11.0/2020,2000,g 13.5,4.0
# From MPEC 2020-C98
317P/WISE,e,11.9509,275.5198,334.9035,2.965294,0.1930201,0.57042846,333.3286,05/11.0/2020,2000,g 17.5,4.0
# From MPC102103
318P/McNaught-Hartley,e,17.8721,35.6546,313.1017,7.496400,0.0480203,0.67483467,79.7863,05/11.0/2020,2000,g  8.5,6.0
# From MPC 97499
319P/Catalina-McNaught,e,15.0954,111.3799,203.6091,3.569182,0.1461676,0.66645089,259.2260,05/11.0/2020,2000,g 15.0,4.0
# From MPC 96281
320P/McNaught,e,4.9089,295.9306,0.7665,3.094198,0.1810848,0.68571479,314.5216,05/11.0/2020,2000,g 20.5,4.0
# From MPC105243
321P/SOHO,e,20.0469,165.0447,172.7245,2.422981,0.2613238,0.98106376,0.0000,01/17.2514/2020,2000,g 20.0,4.0
# From MPC102103
322P/SOHO,e,11.4595,351.4681,56.9380,2.508504,0.2480744,0.97976604,0.0000,08/31.5029/2019,2000,g 19.0,4.0
# From MPEC 2016-Y36
323P/SOHO,e,5.3366,324.3746,353.0476,2.582426,0.2374992,0.98483051,0.0000,01/17.7561/2021,2000,g 20.0,4.0
# From MPC108598
324P/La Sagra,e,21.4230,270.6437,58.0751,3.095247,0.1809927,0.15451098,294.5485,05/11.0/2020,2000,g 13.0,4.0
# From MPC114609
325P/Yang-Gao,e,16.7008,257.5795,343.6813,3.524188,0.1489757,0.59379410,257.6583,05/11.0/2020,2000,g 14.0,4.0
# From MPC103849
326P/Hill,e,2.4707,99.8147,278.5897,4.064864,0.1202638,0.31715689,200.0852,05/11.0/2020,2000,g 13.5,4.0
# From MPC 97499
327P/Van Ness,e,36.2395,173.9691,185.0179,3.563194,0.1465362,0.56266638,236.2201,05/11.0/2020,2000,g 16.0,4.0
# From MPC109148
328P/LONEOS-Tucker,e,17.6661,341.6162,30.4867,4.196524,0.1146488,0.55145200,183.4403,05/11.0/2020,2000,g 14.5,4.0
# From MPC101101
329P/LINEAR-Catalina,e,21.6633,87.6860,343.5656,5.193572,0.0832731,0.67679104,135.2070,05/11.0/2020,2000,g 13.5,4.0
# From MPC105243
330P/Catalina,e,15.6942,293.0958,189.0174,6.633821,0.0576844,0.54895441,77.9860,05/11.0/2020,2000,g 12.0,4.0
# From MPC110497
331P/Gibbs,e,9.7403,216.7781,183.7150,3.002956,0.1894003,0.04053515,333.2036,05/11.0/2020,2000,g 12.0,4.0
# From MPEC 2016-K18
332P/Ikeya-Murakami,e,9.3811,3.7939,152.3810,3.087818,0.1816463,0.48945381,275.6291,05/11.0/2020,2000,g 18.0,4.0
# From MPEC 2016-EI8
332P-B/Ikeya-Murakami,e,9.3805,3.8028,152.3711,3.082329,0.1821317,0.48970701,359.9699,03/17.0/2016,2000,g 19.0,4.0
# From MPEC 2016-K18
332P-C/Ikeya-Murakami,e,9.3802,3.7943,152.3723,3.087784,0.1816493,0.48945920,275.6419,05/11.0/2020,2000,g 16.5,4.0
# From MPEC 2016-ED0
332P-D/Ikeya-Murakami,e,9.3761,3.7923,152.4393,3.081138,0.1822373,0.48977814,359.9486,03/17.0/2016,2000,g 19.0,4.0
# From MPEC 2016-ED0
332P-E/Ikeya-Murakami,e,9.3774,3.8228,152.2825,3.079877,0.1823493,0.48922008,359.9889,03/17.0/2016,2000,g 21.0,4.0
# From MPEC 2016-ED0
332P-F/Ikeya-Murakami,e,9.5293,3.4757,152.8203,3.163214,0.1751908,0.49918860,359.8501,03/17.0/2016,2000,g 21.0,4.0
# From MPEC 2016-ED0
332P-G/Ikeya-Murakami,e,9.2523,3.6955,154.4000,3.050519,0.1849880,0.49200362,359.9006,03/19.0/2016,2000,g 19.0,4.0
# From MPC100285
332P-H/Ikeya-Murakami,e,9.3807,3.7940,152.3730,3.087967,0.1816331,0.48949438,275.5843,05/11.0/2020,2000,g 19.0,4.0
# From MPEC 2016-ED0
332P-I/Ikeya-Murakami,e,9.3791,3.8048,152.3297,3.081767,0.1821815,0.48955490,359.9360,03/17.0/2016,2000,g 20.5,2.0
# From MPEC 2016-EI8
332P-J/Ikeya-Murakami,e,9.4296,3.6729,152.7712,3.115165,0.1792596,0.49429435,359.8613,03/17.0/2016,2000,g 20.5,2.0
# From MPC104796
333P/LINEAR,e,131.9791,115.6251,26.0598,4.219945,0.1136957,0.73629322,170.5855,05/11.0/2020,2000,g 15.0,4.0
# From MPC111774
334P/NEAT,e,20.5175,90.7547,89.7178,6.837154,0.0551304,0.35512914,58.7819,05/11.0/2020,2000,g 10.5,4.0
# From MPC100285
335P/Gibbs,e,7.2908,330.8421,162.2396,3.578965,0.1455687,0.54508201,240.1058,05/11.0/2020,2000,g 17.0,4.0
# From MPC105244
336P/McNaught,e,17.8340,298.2267,308.7084,5.029469,0.0873818,0.44578110,104.2236,05/11.0/2020,2000,g 13.5,4.0
# From MPC112394
337P/WISE,e,15.3740,106.0721,160.9727,3.287844,0.1653246,0.49694834,230.9057,05/11.0/2020,2000,g 17.0,4.0
# From MPC104796
338P/McNaught,e,25.3665,9.7868,4.4010,3.898833,0.1280272,0.41084840,162.0752,05/11.0/2020,2000,g 12.0,4.0
# From MPC101101
339P/Gibbs,e,5.7366,172.7533,27.5231,3.695194,0.1387548,0.63603026,192.5375,05/11.0/2020,2000,g 17.0,4.0
# From MPC102957
340P/Boattini,e,2.0798,291.7288,35.7759,4.251761,0.1124219,0.28050173,142.6237,05/11.0/2020,2000,g 13.0,4.0
# From MPC109148
341P/Gibbs,e,3.7942,30.0054,312.0978,4.295031,0.1107273,0.41493586,159.9194,05/11.0/2020,2000,g 12.5,4.0
# From MPC101101
342P/SOHO,e,12.1012,35.5704,65.6917,3.043417,0.1856359,0.98341763,0.0000,10/19.0127/2021,2000,g  9.0,4.0
# From MPC109148
343P/NEAT-LONEOS,e,5.5829,257.2437,137.3810,5.463009,0.0771891,0.58358517,92.5788,05/11.0/2020,2000,g 14.0,4.0
# From MPC109148
344P/Read,e,3.4902,273.1939,140.4290,4.868646,0.0917470,0.42132718,118.1331,05/11.0/2020,2000,g 13.0,4.0
# From MPC109148
345P/LINEAR,e,2.7262,154.4975,196.3442,4.040937,0.1213336,0.22040440,169.2546,05/11.0/2020,2000,g 12.0,4.0
# From MPC110086
346P/Catalina,e,22.1853,102.4690,336.0339,4.477040,0.1040441,0.50233408,122.9599,05/11.0/2020,2000,g 14.0,4.0
# From MPC108599
347P/PANSTARRS,e,11.7476,261.0486,98.2869,3.607697,0.1438332,0.38519145,192.3474,05/11.0/2020,2000,g 15.0,4.0
# From MPC104796
348P/PANSTARRS,e,17.7289,312.9388,135.2632,3.156625,0.1757396,0.30613206,247.2165,05/11.0/2020,2000,g 14.0,4.0
# From MPC112394
349P/Lemmon,e,5.4913,331.7523,256.0391,3.571519,0.1460241,0.29959411,144.3691,05/11.0/2020,2000,g 14.0,4.0
# From MPC111775
350P/McNaught,e,7.3568,65.4094,141.2449,4.099355,0.1187492,0.09062395,103.4381,05/11.0/2020,2000,g 14.0,4.0
# From MPC105244
351P/Wiegert-PANSTARRS,e,12.7910,283.4490,352.6044,4.436610,0.1054696,0.29620514,172.4864,05/11.0/2020,2000,g 12.5,4.0
# From MPC110086
352P/Skiff,e,21.0096,28.1140,309.1095,6.633756,0.0576853,0.61803475,60.7987,05/11.0/2020,2000,g 11.5,4.0
# From MPEC 2020-AA5
353P/McNaught,e,28.4243,121.5624,230.3723,4.171588,0.1156783,0.46974046,100.8477,05/11.0/2020,2000,g 14.5,4.0
# From MPC105545
354P/LINEAR,e,5.2554,320.1298,133.0781,2.290032,0.2844080,0.12565090,3.8285,05/11.0/2020,2000,g 15.5,4.0
# From MPEC 2020-AA5
355P/LINEAR-NEAT,e,11.0344,51.4459,336.2537,3.473143,0.1522720,0.50663940,143.3449,05/11.0/2020,2000,g 15.5,2.0
# From MPC109148
356P/WISE,e,9.6337,160.7889,226.0467,4.161518,0.1160984,0.35444011,101.7188,05/11.0/2020,2000,g 14.0,4.0
# From MPC114609
357P/Hill,e,6.3091,44.5893,1.4420,4.462837,0.1045412,0.43434074,74.5647,05/11.0/2020,2000,g 15.5,4.0
# From MPEC 2020-H67
358P/PANSTARRS,e,11.0570,85.7181,299.7528,3.149028,0.1763759,0.23792672,134.1641,05/11.0/2020,2000,g 18.0,4.0
# From MPC110086
359P/LONEOS,e,10.2641,149.7613,200.1163,4.639423,0.0986298,0.32376319,98.0590,05/11.0/2020,2000,g 13.5,4.0
# From MPC108599
360P/WISE,e,24.0913,2.1977,354.1101,3.703341,0.1382973,0.49842405,137.7841,05/11.0/2020,2000,g 19.5,6.0
# From MPC114609
361P/Spacewatch,e,13.8850,203.2583,219.1314,4.941748,0.0897187,0.43772459,60.9044,05/11.0/2020,2000,g 12.0,4.0
# From MPEC 2017-V13
362P/,e,15.5606,192.5952,53.6618,3.967035,0.1247398,0.28006816,169.1390,05/11.0/2020,2000,g 12.9,2.0
# From MPC114609
363P/Lemmon,e,4.3711,158.1097,328.6112,3.458799,0.1532202,0.55945091,118.1685,05/11.0/2020,2000,g 17.5,4.0
# From MPC114609
364P/PANSTARRS,e,12.1487,46.2152,211.9725,2.878631,0.2018019,0.72255384,138.5602,05/11.0/2020,2000,g 17.0,2.0
# From MPC111775
365P/PANSTARRS,e,9.8383,87.4231,66.2253,3.180425,0.1737706,0.57485131,142.4717,05/11.0/2020,2000,g 17.0,4.0
# From MPC114610
